[
    {
        "Altitude(m)": 554271.095184366,
        "Argument of Periapsis(deg)": 0.026491964442854003,
        "Eccentricity": 0.0,
        "Inclination(deg)": 53.0,
        "Latitude(deg)": 24.581531120282843,
        "Longitude(deg)": -98.1349950279411,
        "Mean Anomaly(deg)": -328.72442852968976,
        "RAAN(deg)": 344.9605734741121,
        "Satellite Name": "Starlink Shell 1 1539",
        "Satellite Number": 1539,
        "Semi-Major Axis(m)": 6931778.249405717,
        "Time(s)": 760
    },
    {
        "Altitude(m)": 554329.1842160685,
        "Argument of Periapsis(deg)": 0.02684054292236524,
        "Eccentricity": 0.0,
        "Inclination(deg)": 53.0,
        "Latitude(deg)": 25.053603177336015,
        "Longitude(deg)": -97.7194733317593,
        "Mean Anomaly(deg)": -328.0975973261329,
        "RAAN(deg)": 344.9600547040346,
        "Satellite Name": "Starlink Shell 1 1539",
        "Satellite Number": 1539,
        "Semi-Major Axis(m)": 6931778.249405717,
        "Time(s)": 770
    },
    {
        "Altitude(m)": 554388.8847170601,
        "Argument of Periapsis(deg)": 0.027189121401876473,
        "Eccentricity": 0.0,
        "Inclination(deg)": 53.0,
        "Latitude(deg)": 25.524230643607673,
        "Longitude(deg)": -97.30044682952999,
        "Mean Anomaly(deg)": -327.47076612257626,
        "RAAN(deg)": 344.95953593395717,
        "Satellite Name": "Starlink Shell 1 1539",
        "Satellite Number": 1539,
        "Semi-Major Axis(m)": 6931778.249405717,
        "Time(s)": 780
    },
    {
        "Altitude(m)": 554450.1478911993,
        "Argument of Periapsis(deg)": 0.02753769988138771,
        "Eccentricity": 0.0,
        "Inclination(deg)": 53.0,
        "Latitude(deg)": 25.99337170149492,
        "Longitude(deg)": -96.87782329792829,
        "Mean Anomaly(deg)": -326.84393491901955,
        "RAAN(deg)": 344.95901716387965,
        "Satellite Name": "Starlink Shell 1 1539",
        "Satellite Number": 1539,
        "Semi-Major Axis(m)": 6931778.249405717,
        "Time(s)": 790
    },
    {
        "Altitude(m)": 554512.9243355347,
        "Argument of Periapsis(deg)": 0.02788627836089895,
        "Eccentricity": 0.0,
        "Inclination(deg)": 53.0,
        "Latitude(deg)": 26.460983652413784,
        "Longitude(deg)": -96.4515097318955,
        "Mean Anomaly(deg)": -326.2171037154628,
        "RAAN(deg)": 344.9584983938022,
        "Satellite Name": "Starlink Shell 1 1539",
        "Satellite Number": 1539,
        "Semi-Major Axis(m)": 6931778.249405717,
        "Time(s)": 800
    },
    {
        "Altitude(m)": 554577.1640668638,
        "Argument of Periapsis(deg)": 0.02823485684041019,
        "Eccentricity": 0.0,
        "Inclination(deg)": 53.0,
        "Latitude(deg)": 26.927022889283375,
        "Longitude(deg)": -96.0214118286182,
        "Mean Anomaly(deg)": -325.59027251190605,
        "RAAN(deg)": 344.9579796237247,
        "Satellite Name": "Starlink Shell 1 1539",
        "Satellite Number": 1539,
        "Semi-Major Axis(m)": 6931778.249405717,
        "Time(s)": 810
    },
    {
        "Altitude(m)": 554642.8165485618,
        "Argument of Periapsis(deg)": 0.028583435319921423,
        "Eccentricity": 0.0,
        "Inclination(deg)": 53.0,
        "Latitude(deg)": 27.39144486848871,
        "Longitude(deg)": -95.58743347348059,
        "Mean Anomaly(deg)": -324.96344130834945,
        "RAAN(deg)": 344.95746085364726,
        "Satellite Name": "Starlink Shell 1 1539",
        "Satellite Number": 1539,
        "Semi-Major Axis(m)": 6931778.249405717,
        "Time(s)": 820
    },
    {
        "Altitude(m)": 554709.8307176142,
        "Argument of Periapsis(deg)": 0.028932013799432665,
        "Eccentricity": 0.0,
        "Inclination(deg)": 53.0,
        "Latitude(deg)": 27.854204081329847,
        "Longitude(deg)": -95.14947774104995,
        "Mean Anomaly(deg)": -324.3366101047927,
        "RAAN(deg)": 344.95694208356974,
        "Satellite Name": "Starlink Shell 1 1539",
        "Satellite Number": 1539,
        "Semi-Major Axis(m)": 6931778.249405717,
        "Time(s)": 830
    },
    {
        "Altitude(m)": 554778.1550119196,
        "Argument of Periapsis(deg)": 0.029280592278943897,
        "Eccentricity": 0.0,
        "Inclination(deg)": 53.0,
        "Latitude(deg)": 28.31525402496753,
        "Longitude(deg)": -94.70744638555348,
        "Mean Anomaly(deg)": -323.70977890123595,
        "RAAN(deg)": 344.9564233134923,
        "Satellite Name": "Starlink Shell 1 1539",
        "Satellite Number": 1539,
        "Semi-Major Axis(m)": 6931778.249405717,
        "Time(s)": 840
    },
    {
        "Altitude(m)": 554847.7373977387,
        "Argument of Periapsis(deg)": 0.029629170758455132,
        "Eccentricity": 0.0,
        "Inclination(deg)": 53.0,
        "Latitude(deg)": 28.77454717287776,
        "Longitude(deg)": -94.26123933393671,
        "Mean Anomaly(deg)": -323.08294769767923,
        "RAAN(deg)": 344.9559045434148,
        "Satellite Name": "Starlink Shell 1 1539",
        "Satellite Number": 1539,
        "Semi-Major Axis(m)": 6931778.249405717,
        "Time(s)": 850
    },
    {
        "Altitude(m)": 554918.5253973906,
        "Argument of Periapsis(deg)": 0.02997774923796637,
        "Eccentricity": 0.0,
        "Inclination(deg)": 53.0,
        "Latitude(deg)": 29.232034944833337,
        "Longitude(deg)": -93.8107558627014,
        "Mean Anomaly(deg)": -322.4561164941225,
        "RAAN(deg)": 344.9553857733373,
        "Satellite Name": "Starlink Shell 1 1539",
        "Satellite Number": 1539,
        "Semi-Major Axis(m)": 6931778.249405717,
        "Time(s)": 860
    },
    {
        "Altitude(m)": 554990.4661170759,
        "Argument of Periapsis(deg)": 0.030326327717477602,
        "Eccentricity": 0.0,
        "Inclination(deg)": 53.0,
        "Latitude(deg)": 29.68766767642973,
        "Longitude(deg)": -93.3558932563484,
        "Mean Anomaly(deg)": -321.82928529056585,
        "RAAN(deg)": 344.9548670032599,
        "Satellite Name": "Starlink Shell 1 1539",
        "Satellite Number": 1539,
        "Semi-Major Axis(m)": 6931778.249405717,
        "Time(s)": 870
    },
    {
        "Altitude(m)": 555063.5062749081,
        "Argument of Periapsis(deg)": 0.030674906196988847,
        "Eccentricity": 0.0,
        "Inclination(deg)": 53.0,
        "Latitude(deg)": 30.141394588180567,
        "Longitude(deg)": -92.89654799059588,
        "Mean Anomaly(deg)": -321.2024540870091,
        "RAAN(deg)": 344.95434823318243,
        "Satellite Name": "Starlink Shell 1 1539",
        "Satellite Number": 1539,
        "Semi-Major Axis(m)": 6931778.249405717,
        "Time(s)": 880
    },
    {
        "Altitude(m)": 555137.5922290529,
        "Argument of Periapsis(deg)": 0.031023484676500086,
        "Eccentricity": 0.0,
        "Inclination(deg)": 53.0,
        "Latitude(deg)": 30.593163754208074,
        "Longitude(deg)": -92.43261523822751,
        "Mean Anomaly(deg)": -320.57562288345235,
        "RAAN(deg)": 344.9538294631049,
        "Satellite Name": "Starlink Shell 1 1539",
        "Satellite Number": 1539,
        "Semi-Major Axis(m)": 6931778.249405717,
        "Time(s)": 890
    },
    {
        "Altitude(m)": 555212.6700060358,
        "Argument of Periapsis(deg)": 0.03137206315601132,
        "Eccentricity": 0.0,
        "Inclination(deg)": 53.0,
        "Latitude(deg)": 31.042922070561783,
        "Longitude(deg)": -91.96398837883872,
        "Mean Anomaly(deg)": -319.94879167989563,
        "RAAN(deg)": 344.9533106930275,
        "Satellite Name": "Starlink Shell 1 1539",
        "Satellite Number": 1539,
        "Semi-Major Axis(m)": 6931778.249405717,
        "Time(s)": 900
    },
    {
        "Altitude(m)": 555288.6853291595,
        "Argument of Periapsis(deg)": 0.03172064163552255,
        "Eccentricity": 0.0,
        "Inclination(deg)": 53.0,
        "Latitude(deg)": 31.490615223200876,
        "Longitude(deg)": -91.49056002566634,
        "Mean Anomaly(deg)": -319.321960476339,
        "RAAN(deg)": 344.95279192295,
        "Satellite Name": "Starlink Shell 1 1539",
        "Satellite Number": 1539,
        "Semi-Major Axis(m)": 6931778.249405717,
        "Time(s)": 910
    },
    {
        "Altitude(m)": 555365.583646999,
        "Argument of Periapsis(deg)": 0.0320692201150338,
        "Eccentricity": 0.0,
        "Inclination(deg)": 53.0,
        "Latitude(deg)": 31.936187655682012,
        "Longitude(deg)": -91.01222154409062,
        "Mean Anomaly(deg)": -318.6951292727822,
        "RAAN(deg)": 344.9522731528725,
        "Satellite Name": "Starlink Shell 1 1539",
        "Satellite Number": 1539,
        "Semi-Major Axis(m)": 6931778.249405717,
        "Time(s)": 920
    },
    {
        "Altitude(m)": 555443.3101620316,
        "Argument of Periapsis(deg)": 0.032417798594545036,
        "Eccentricity": 0.0,
        "Inclination(deg)": 53.0,
        "Latitude(deg)": 32.379582536598804,
        "Longitude(deg)": -90.52886257503559,
        "Mean Anomaly(deg)": -318.0682980692256,
        "RAAN(deg)": 344.95175438279506,
        "Satellite Name": "Starlink Shell 1 1539",
        "Satellite Number": 1539,
        "Semi-Major Axis(m)": 6931778.249405717,
        "Time(s)": 930
    },
    {
        "Altitude(m)": 555521.809859302,
        "Argument of Periapsis(deg)": 0.03276637707405627,
        "Eccentricity": 0.0,
        "Inclination(deg)": 53.0,
        "Latitude(deg)": 32.820741726828125,
        "Longitude(deg)": -90.0403720765089,
        "Mean Anomaly(deg)": -317.4414668656689,
        "RAAN(deg)": 344.95123561271754,
        "Satellite Name": "Starlink Shell 1 1539",
        "Satellite Number": 1539,
        "Semi-Major Axis(m)": 6931778.249405717,
        "Time(s)": 940
    }
]